{
  "type": "FeatureCollection",
  "features": [
    {
      "type": "Feature",
      "properties": {
        "norad_id": 41330,
        "name": "COSMOS 2514 (751)",
        "group": "gnss",
        "lat": -35.92441975647314,
        "lon": 158.5634955011817,
        "alt_km": 19104.894759819876,
        "timestamp": "2025-12-25T22:42:17.254235+00:00",
        "meta_object_name": "COSMOS 2514 (751)",
        "meta_object_id": "2016-008A",
        "meta_epoch": "2025-12-24T06:01:31.134720",
        "meta_mean_motion": 2.13102586,
        "meta_eccentricity": 0.00116213,
        "meta_inclination": 65.1271,
        "meta_ra_of_asc_node": 319.0099,
        "meta_arg_of_pericenter": 220.0868,
        "meta_mean_anomaly": 139.8285,
        "meta_ephemeris_type": 0,
        "meta_classification_type": "U",
        "meta_norad_cat_id": 41330,
        "meta_element_set_no": 999,
        "meta_rev_at_epoch": 7689,
        "meta_bstar": 0,
        "meta_mean_motion_dot": -3.3e-07,
        "meta_mean_motion_ddot": 0,
        "tle_line1": "1 41330U 16008A   25358.25105480 -.00000033  00000+0  00000+0 0  9999",
        "tle_line2": "2 41330  65.1271 319.0099 0011621 220.0868 139.8285  2.13102586 76897"
      },
      "geometry": {
        "type": "Point",
        "coordinates": [
          158.5634955011817,
          -35.92441975647314
        ]
      }
    },
    {
      "type": "Feature",
      "properties": {
        "norad_id": 41384,
        "name": "IRNSS-1F",
        "group": "gnss",
        "lat": 0.6040526601120825,
        "lon": 107.77424945885653,
        "alt_km": 35879.60723034713,
        "timestamp": "2025-12-25T22:42:17.254263+00:00",
        "meta_object_name": "IRNSS-1F",
        "meta_object_id": "2016-015A",
        "meta_epoch": "2025-12-24T23:31:33.658752",
        "meta_mean_motion": 1.00278532,
        "meta_eccentricity": 0.00226614,
        "meta_inclination": 4.9118,
        "meta_ra_of_asc_node": 100.9953,
        "meta_arg_of_pericenter": 182.2729,
        "meta_mean_anomaly": 195.8977,
        "meta_ephemeris_type": 0,
        "meta_classification_type": "U",
        "meta_norad_cat_id": 41384,
        "meta_element_set_no": 999,
        "meta_rev_at_epoch": 3592,
        "meta_bstar": 0,
        "meta_mean_motion_dot": 1.78e-06,
        "meta_mean_motion_ddot": 0,
        "tle_line1": "1 41384U 16015A   25358.98025068  .00000178  00000+0  00000+0 0  9998",
        "tle_line2": "2 41384   4.9118 100.9953 0022661 182.2729 195.8977  1.00278532 35923"
      },
      "geometry": {
        "type": "Point",
        "coordinates": [
          107.77424945885653,
          0.6040526601120825
        ]
      }
    },
    {
      "type": "Feature",
      "properties": {
        "norad_id": 41434,
        "name": "BEIDOU-2 IGSO-6 (C13)",
        "group": "gnss",
        "lat": 42.68547410619723,
        "lon": -172.41348232759415,
        "alt_km": 35829.106073585244,
        "timestamp": "2025-12-25T22:42:17.254276+00:00",
        "meta_object_name": "BEIDOU-2 IGSO-6 (C13)",
        "meta_object_id": "2016-021A",
        "meta_epoch": "2025-12-25T02:21:14.682240",
        "meta_mean_motion": 1.00290736,
        "meta_eccentricity": 0.00608236,
        "meta_inclination": 59.9818,
        "meta_ra_of_asc_node": 39.7747,
        "meta_arg_of_pericenter": 230.5129,
        "meta_mean_anomaly": 312.5474,
        "meta_ephemeris_type": 0,
        "meta_classification_type": "U",
        "meta_norad_cat_id": 41434,
        "meta_element_set_no": 999,
        "meta_rev_at_epoch": 3573,
        "meta_bstar": 0,
        "meta_mean_motion_dot": -1.35e-06,
        "meta_mean_motion_ddot": 0,
        "tle_line1": "1 41434U 16021A   25359.09808660 -.00000135  00000+0  00000+0 0  9995",
        "tle_line2": "2 41434  59.9818  39.7747 0060823 230.5129 312.5474  1.00290736 35738"
      },
      "geometry": {
        "type": "Point",
        "coordinates": [
          -172.41348232759415,
          42.68547410619723
        ]
      }
    },
    {
      "type": "Feature",
      "properties": {
        "norad_id": 41469,
        "name": "IRNSS-1G",
        "group": "gnss",
        "lat": 4.641519050984785,
        "lon": -155.0961379519228,
        "alt_km": 35793.24559528885,
        "timestamp": "2025-12-25T22:42:17.254288+00:00",
        "meta_object_name": "IRNSS-1G",
        "meta_object_id": "2016-027A",
        "meta_epoch": "2025-12-25T12:13:38.614080",
        "meta_mean_motion": 1.00273695,
        "meta_eccentricity": 0.0002698,
        "meta_inclination": 4.7659,
        "meta_ra_of_asc_node": 101.7714,
        "meta_arg_of_pericenter": 326.6249,
        "meta_mean_anomaly": 338.8484,
        "meta_ephemeris_type": 0,
        "meta_classification_type": "U",
        "meta_norad_cat_id": 41469,
        "meta_element_set_no": 999,
        "meta_rev_at_epoch": 3543,
        "meta_bstar": 0,
        "meta_mean_motion_dot": -3.14e-06,
        "meta_mean_motion_ddot": 0,
        "tle_line1": "1 41469U 16027A   25359.50947470 -.00000314  00000+0  00000+0 0  9997",
        "tle_line2": "2 41469   4.7659 101.7714 0002698 326.6249 338.8484  1.00273695 35431"
      },
      "geometry": {
        "type": "Point",
        "coordinates": [
          -155.0961379519228,
          4.641519050984785
        ]
      }
    },
    {
      "type": "Feature",
      "properties": {
        "norad_id": 41549,
        "name": "GSAT0211 (GALILEO 14)",
        "group": "gnss",
        "lat": 46.54883664855454,
        "lon": -0.8619228321251696,
        "alt_km": 23219.078088961603,
        "timestamp": "2025-12-25T22:42:17.254302+00:00",
        "meta_object_name": "GSAT0211 (GALILEO 14)",
        "meta_object_id": "2016-030A",
        "meta_epoch": "2025-12-23T23:52:07.352256",
        "meta_mean_motion": 1.70473256,
        "meta_eccentricity": 0.0004011,
        "meta_inclination": 55.1486,
        "meta_ra_of_asc_node": 226.5135,
        "meta_arg_of_pericenter": 16.1635,
        "meta_mean_anomaly": 343.9466,
        "meta_ephemeris_type": 0,
        "meta_classification_type": "U",
        "meta_norad_cat_id": 41549,
        "meta_element_set_no": 999,
        "meta_rev_at_epoch": 5968,
        "meta_bstar": 0,
        "meta_mean_motion_dot": 7.2e-07,
        "meta_mean_motion_ddot": 0,
        "tle_line1": "1 41549U 16030A   25357.99452954  .00000072  00000+0  00000+0 0  9999",
        "tle_line2": "2 41549  55.1486 226.5135 0004011  16.1635 343.9466  1.70473256 59684"
      },
      "geometry": {
        "type": "Point",
        "coordinates": [
          -0.8619228321251696,
          46.54883664855454
        ]
      }
    },
    {
      "type": "Feature",
      "properties": {
        "norad_id": 41550,
        "name": "GSAT0210 (GALILEO 13)",
        "group": "gnss",
        "lat": -32.036638885710914,
        "lon": -159.37228628068914,
        "alt_km": 23227.64570821329,
        "timestamp": "2025-12-25T22:42:17.254313+00:00",
        "meta_object_name": "GSAT0210 (GALILEO 13)",
        "meta_object_id": "2016-030B",
        "meta_epoch": "2025-12-24T20:07:27.603552",
        "meta_mean_motion": 1.70473396,
        "meta_eccentricity": 5.683e-05,
        "meta_inclination": 55.1478,
        "meta_ra_of_asc_node": 226.4883,
        "meta_arg_of_pericenter": 175.0994,
        "meta_mean_anomaly": 184.9941,
        "meta_ephemeris_type": 0,
        "meta_classification_type": "U",
        "meta_norad_cat_id": 41550,
        "meta_element_set_no": 999,
        "meta_rev_at_epoch": 5969,
        "meta_bstar": 0,
        "meta_mean_motion_dot": 7.1e-07,
        "meta_mean_motion_ddot": 0,
        "tle_line1": "1 41550U 16030B   25358.83851393  .00000071  00000+0  00000+0 0  9994",
        "tle_line2": "2 41550  55.1478 226.4883 0000568 175.0994 184.9941  1.70473396 59699"
      },
      "geometry": {
        "type": "Point",
        "coordinates": [
          -159.37228628068914,
          -32.036638885710914
        ]
      }
    },
    {
      "type": "Feature",
      "properties": {
        "norad_id": 41586,
        "name": "BEIDOU-2 G7 (C03)",
        "group": "gnss",
        "lat": 1.5835910111583982,
        "lon": -174.2515221032911,
        "alt_km": 35796.76801788968,
        "timestamp": "2025-12-25T22:42:17.254326+00:00",
        "meta_object_name": "BEIDOU-2 G7 (C03)",
        "meta_object_id": "2016-037A",
        "meta_epoch": "2025-12-25T15:53:37.923072",
        "meta_mean_motion": 1.00268392,
        "meta_eccentricity": 0.0005191,
        "meta_inclination": 1.7866,
        "meta_ra_of_asc_node": 67.901,
        "meta_arg_of_pericenter": 0.7979,
        "meta_mean_anomaly": 14.5498,
        "meta_ephemeris_type": 0,
        "meta_classification_type": "U",
        "meta_norad_cat_id": 41586,
        "meta_element_set_no": 999,
        "meta_rev_at_epoch": 515,
        "meta_bstar": 0,
        "meta_mean_motion_dot": -3.32e-06,
        "meta_mean_motion_ddot": 0,
        "tle_line1": "1 41586U 16037A   25359.66224448 -.00000332  00000+0  00000+0 0  9998",
        "tle_line2": "2 41586   1.7866  67.9010 0005191   0.7979  14.5498  1.00268392  5158"
      },
      "geometry": {
        "type": "Point",
        "coordinates": [
          -174.2515221032911,
          1.5835910111583982
        ]
      }
    }
  ]
}